[{"OBJECT_NAME":"NISAR","OBJECT_ID":"2025-163A","EPOCH":"2026-03-09T23:23:00.539520","MEAN_MOTION":14.42502005,"ECCENTRICITY":0.00012255,"INCLINATION":98.4063,"RA_OF_ASC_NODE":258.0769,"ARG_OF_PERICENTER":90.8877,"MEAN_ANOMALY":269.2453,"EPHEMERIS_TYPE":0,"CLASSIFICATION_TYPE":"U","NORAD_CAT_ID":65053,"ELEMENT_SET_NO":999,"REV_AT_EPOCH":3208,"BSTAR":7.226955e-6,"MEAN_MOTION_DOT":-2.0e-7,"MEAN_MOTION_DDOT":0},{"OBJECT_NAME":"FENGYUN 1C DEB","OBJECT_ID":"1999-025DQR","EPOCH":"2026-03-09T02:25:16.329216","MEAN_MOTION":14.43277638,"ECCENTRICITY":0.00371621,"INCLINATION":98.765,"RA_OF_ASC_NODE":174.6474,"ARG_OF_PERICENTER":5.7602,"MEAN_ANOMALY":118.3876,"EPHEMERIS_TYPE":0,"CLASSIFICATION_TYPE":"U","NORAD_CAT_ID":35233,"ELEMENT_SET_NO":999,"REV_AT_EPOCH":92421,"BSTAR":0.0025401039,"MEAN_MOTION_DOT":8.589e-5,"MEAN_MOTION_DDOT":0}]
